IRIDIUM 112             
1 41925U 17003J   24053.81817316  .00000191  00000+0  60998-4 0  9997
2 41925  86.3909  81.6122 0002181  86.7156 273.4289 14.34216133372109
IRIDIUM 111             
1 41926U 17003K   24054.50317177  .00000219  00000+0  71091-4 0  9992
2 41926  86.3910  81.3775 0001955  90.7702 269.3717 14.34216350372250
IRIDIUM 113             
1 42803U 17039A   24054.48313903  .00000164  00000+0  51434-4 0  9994
2 42803  86.3992 315.1631 0001907  80.0556 280.0855 14.34217636350112
IRIDIUM 123             
1 42804U 17039B   24053.89670000  .00000225  00000+0  73193-4 0  9997
2 42804  86.4023 346.8939 0002057  82.9125 277.2304 14.34217653348798
IRIDIUM 120             
1 42805U 17039C   24054.47679558  .00000076  00000+0  20193-4 0  9996
2 42805  86.3982 315.0577 0002118  85.2972 274.8465 14.34218019350108
IRIDIUM 115             
1 42806U 17039D   24053.76761175  .00000543  00000+0  15542-3 0  9995
2 42806  86.4519 315.3607 0002111  87.5810 272.5633 14.43269108352325
IRIDIUM 118             
1 42807U 17039E   24054.34702534  .00000243  00000+0  79638-4 0  9999
2 42807  86.4024 346.7077 0002169  84.8401 275.3042 14.34217209348869
IRIDIUM 117             
1 42808U 17039F   24053.87767148  .00000408  00000+0  13875-3 0  9992
2 42808  86.4022 346.8689 0001937  85.8135 274.3282 14.34216803348825
